[{"OBJECT_NAME":"STARLINK-35663","OBJECT_ID":"2025-263G","EPOCH":"2026-03-09T03:21:56.716128","MEAN_MOTION":15.27568398,"ECCENTRICITY":6.716e-5,"INCLINATION":43.0016,"RA_OF_ASC_NODE":353.895,"ARG_OF_PERICENTER":289.3507,"MEAN_ANOMALY":70.7272,"EPHEMERIS_TYPE":0,"CLASSIFICATION_TYPE":"U","NORAD_CAT_ID":66491,"ELEMENT_SET_NO":999,"REV_AT_EPOCH":1881,"BSTAR":0.000947502,"MEAN_MOTION_DOT":0.00025893,"MEAN_MOTION_DDOT":0},{"OBJECT_NAME":"CZ-6A DEB","OBJECT_ID":"2022-151DE","EPOCH":"2026-03-09T09:45:43.657920","MEAN_MOTION":15.34292219,"ECCENTRICITY":0.00393756,"INCLINATION":99.0022,"RA_OF_ASC_NODE":218.5596,"ARG_OF_PERICENTER":192.6197,"MEAN_ANOMALY":167.4059,"EPHEMERIS_TYPE":0,"CLASSIFICATION_TYPE":"U","NORAD_CAT_ID":54359,"ELEMENT_SET_NO":999,"REV_AT_EPOCH":10560,"BSTAR":0.0065240017,"MEAN_MOTION_DOT":0.00228186,"MEAN_MOTION_DDOT":0}]
